[{"norad_id":"53960","company":"SES","tle_line2":"2 53960   0.0376  79.6791 0000581   4.3237  10.2094  1.00268425 11605","launch_date":"2022-10-04","type":"GEO","tle_line1":"1 53960U 22123A   25340.33871478 -.00000093  00000+0  00000+0 0  9999","satellite_name":"SES-20"},{"norad_id":"53961","company":"SES","tle_line2":"2 53961   0.0289  38.9302 0000851 216.2679 208.3412  1.00269710  5288","launch_date":"2022-10-04","type":"GEO","tle_line1":"1 53961U 22123B   25340.44178692  .00000076  00000+0  00000+0 0  9990","satellite_name":"SES-21"},{"norad_id":"53914","company":"STARLINK","tle_line2":"2 53914  53.2170  12.5186 0001676  88.6680 271.4504 15.08834471177752","launch_date":"2022-09-24","type":"LEO","tle_line1":"1 53914U 22119AE  25340.47673474 -.00001322  00000+0 -64987-4 0  9990","satellite_name":"STARLINK-5040"},{"norad_id":"53915","company":"STARLINK","tle_line2":"2 53915  53.2180  13.2015 0001180  96.7683 263.3444 15.08837564177733","launch_date":"2022-09-24","type":"LEO","tle_line1":"1 53915U 22119AF  25340.35898455  .00000616  00000+0  56779-4 0  9999","satellite_name":"STARLINK-5017"},{"norad_id":"53916","company":"STARLINK","tle_line2":"2 53916  53.2183 352.3823 0001427  82.5849 277.5305 15.08849725178042","launch_date":"2022-09-24","type":"LEO","tle_line1":"1 53916U 22119AG  25340.44172024  .00000862  00000+0  72205-4 0  9992","satellite_name":"STARLINK-5051"},{"norad_id":"53917","company":"STARLINK","tle_line2":"2 53917  53.2185  13.1584 0001234 103.6060 256.5070 15.08829719177739","launch_date":"2022-09-24","type":"LEO","tle_line1":"1 53917U 22119AH  25340.35162822 -.00000412  00000+0 -77991-5 0  9999","satellite_name":"STARLINK-5036"},{"norad_id":"53918","company":"STARLINK","tle_line2":"2 53918  53.2185  12.1957 0001191 102.2178 257.8948 15.08847030177767","launch_date":"2022-09-24","type":"LEO","tle_line1":"1 53918U 22119AJ  25340.53927069 -.00000013  00000+0  17261-4 0  9991","satellite_name":"STARLINK-5012"},{"norad_id":"53919","company":"STARLINK","tle_line2":"2 53919  53.2189  12.4680 0001348  91.5215 268.5932 15.08838118177752","launch_date":"2022-09-24","type":"LEO","tle_line1":"1 53919U 22119AK  25340.46935473 -.00001032  00000+0 -46778-4 0  9990","satellite_name":"STARLINK-5023"},{"norad_id":"53920","company":"STARLINK","tle_line2":"2 53920  53.2191  12.5884 0001528  68.1491 291.9664 15.08838343177752","launch_date":"2022-09-24","type":"LEO","tle_line1":"1 53920U 22119AL  25340.48874488 -.00000864  00000+0 -36199-4 0  9990","satellite_name":"STARLINK-5025"},{"norad_id":"53922","company":"STARLINK","tle_line2":"2 53922  53.2184  13.8855 0001413  86.9187 273.1967 15.08833148177702","launch_date":"2022-09-24","type":"LEO","tle_line1":"1 53922U 22119AN  25340.12710602 -.00000608  00000+0 -20103-4 0  9994","satellite_name":"STARLINK-5002"},{"norad_id":"53923","company":"STARLINK","tle_line2":"2 53923  53.2186  12.1487 0001265  91.6824 268.4314 15.08838788177768","launch_date":"2022-09-24","type":"LEO","tle_line1":"1 53923U 22119AP  25340.53191244 -.00000150  00000+0  86869-5 0  9998","satellite_name":"STARLINK-5004"},{"norad_id":"53924","company":"STARLINK","tle_line2":"2 53924  53.2185   8.0919 0001176  99.9975 260.1150 15.08845377177805","launch_date":"2022-09-24","type":"LEO","tle_line1":"1 53924U 22119AQ  25340.33917306  .00001078  00000+0  85769-4 0  9998","satellite_name":"STARLINK-5001"},{"norad_id":"53925","company":"STARLINK","tle_line2":"2 53925  53.2176  12.0194 0001349  96.0776 264.0370 15.08845144177769","launch_date":"2022-09-24","type":"LEO","tle_line1":"1 53925U 22119AR  25340.50979602  .00000822  00000+0  69717-4 0  9996","satellite_name":"STARLINK-5011"},{"norad_id":"53926","company":"STARLINK","tle_line2":"2 53926  53.2181   9.2105 0001316  92.8825 267.2318 15.08833281177776","launch_date":"2022-09-24","type":"LEO","tle_line1":"1 53926U 22119AS  25340.06317150 -.00001675  00000+0 -87185-4 0  9990","satellite_name":"STARLINK-5014"},{"norad_id":"53928","company":"STARLINK","tle_line2":"2 53928  53.2165   3.0917 0001541  90.5886 269.5282 15.08851334177870","launch_date":"2022-09-24","type":"LEO","tle_line1":"1 53928U 22119AU  25340.33779844  .00001985  00000+0  14271-3 0  9991","satellite_name":"STARLINK-5009"},{"norad_id":"53929","company":"STARLINK","tle_line2":"2 53929  53.2190  12.7547 0001402  87.0404 273.0749 15.08843278177751","launch_date":"2022-09-24","type":"LEO","tle_line1":"1 53929U 22119AV  25340.51821230 -.00000838  00000+0 -34547-4 0  9996","satellite_name":"STARLINK-5018"},{"norad_id":"53930","company":"STARLINK","tle_line2":"2 53930  53.2177   3.0036 0001043 105.9204 254.1904 15.08824025177878","launch_date":"2022-09-24","type":"LEO","tle_line1":"1 53930U 22119AW  25340.32307758  .00000376  00000+0  41704-4 0  9999","satellite_name":"STARLINK-5010"},{"norad_id":"53932","company":"STARLINK","tle_line2":"2 53932  53.2192 358.2096 0001232  97.5015 262.6117 15.08832605177956","launch_date":"2022-09-24","type":"LEO","tle_line1":"1 53932U 22119AY  25340.35484701 -.00000083  00000+0  12897-4 0  9995","satellite_name":"STARLINK-4772"},{"norad_id":"53933","company":"STARLINK","tle_line2":"2 53933  53.2194   3.0712 0001537  87.2572 272.8596 15.08847822177873","launch_date":"2022-09-24","type":"LEO","tle_line1":"1 53933U 22119AZ  25340.33410404  .00001185  00000+0  92511-4 0  9997","satellite_name":"STARLINK-4782"},{"norad_id":"53934","company":"STARLINK","tle_line2":"2 53934  53.2190 358.1816 0001259 101.3229 258.7905 15.08843743177962","launch_date":"2022-09-24","type":"LEO","tle_line1":"1 53934U 22119BA  25340.35115251  .00000358  00000+0  40594-4 0  9997","satellite_name":"STARLINK-4775"},{"norad_id":"53935","company":"STARLINK","tle_line2":"2 53935  53.2181 349.2788 0001348  79.1737 280.9406 15.08833534178047","launch_date":"2022-09-24","type":"LEO","tle_line1":"1 53935U 22119BB  25340.06870217 -.00001720  00000+0 -90042-4 0  9995","satellite_name":"STARLINK-5000"},{"norad_id":"53936","company":"STARLINK","tle_line2":"2 53936  53.2180 358.0047 0001404  83.0911 277.0241 15.08834262177956","launch_date":"2022-09-24","type":"LEO","tle_line1":"1 53936U 22119BC  25340.32168644 -.00000866  00000+0 -36347-4 0  9997","satellite_name":"STARLINK-4791"},{"norad_id":"53964","company":"STARLINK","tle_line2":"2 53964  53.2188 282.2596 0001279  97.1754 262.9384 15.08852868175268","launch_date":"2022-10-05","type":"LEO","tle_line1":"1 53964U 22125A   25340.58069965  .00000850  00000+0  71478-4 0  9994","satellite_name":"STARLINK-4633"},{"norad_id":"53965","company":"STARLINK","tle_line2":"2 53965  53.2189 282.2422 0001711  75.6648 284.4534 15.08849248175266","launch_date":"2022-10-05","type":"LEO","tle_line1":"1 53965U 22125B   25340.57797396 -.00000346  00000+0 -36385-5 0  9991","satellite_name":"STARLINK-4578"},{"norad_id":"53966","company":"STARLINK","tle_line2":"2 53966  53.2189 282.2145 0001501  89.6067 270.5098 15.08849037175263","launch_date":"2022-10-05","type":"LEO","tle_line1":"1 53966U 22125C   25340.57333964  .00002622  00000+0  18273-3 0  9990","satellite_name":"STARLINK-4635"},{"norad_id":"53967","company":"STARLINK","tle_line2":"2 53967  53.2183 282.1886 0001636  96.3882 263.7296 15.08844506175268","launch_date":"2022-10-05","type":"LEO","tle_line1":"1 53967U 22125D   25340.56965014  .00001734  00000+0  12700-3 0  9999","satellite_name":"STARLINK-4634"},{"norad_id":"53968","company":"STARLINK","tle_line2":"2 53968  53.2189 282.1234 0001447  93.0340 267.0818 15.08842850175262","launch_date":"2022-10-05","type":"LEO","tle_line1":"1 53968U 22125E   25340.55859902 -.00001103  00000+0 -51183-4 0  9998","satellite_name":"STARLINK-4629"},{"norad_id":"53969","company":"STARLINK","tle_line2":"2 53969  53.2175 282.1673 0001518  84.2000 275.9165 15.08847447175269","launch_date":"2022-10-05","type":"LEO","tle_line1":"1 53969U 22125F   25340.56596615  .00001834  00000+0  13326-3 0  9994","satellite_name":"STARLINK-4468"},{"norad_id":"53943","company":"ACTIVE","tle_line2":"2 53943  34.9932  54.1513 0004963  68.1072 292.0169 15.20155052177955","launch_date":"2022-09-26","type":"LEO","tle_line1":"1 53943U 22120A   25340.63001574  .00014906  00000+0  67294-3 0  9991","satellite_name":"YAOGAN-36 01A"},{"norad_id":"53947","company":"ACTIVE","tle_line2":"2 53947  35.0065  30.7402 0004406 184.6319 175.4358 15.31070975178198","launch_date":"2022-09-26","type":"LEO","tle_line1":"1 53947U 22120E   25340.57754202  .00024598  00000+0  79712-3 0  9997","satellite_name":"YAOGAN-36 01C"}]