OBJECT_NAME,OBJECT_ID,EPOCH,MEAN_MOTION,ECCENTRICITY,INCLINATION,RA_OF_ASC_NODE,ARG_OF_PERICENTER,MEAN_ANOMALY,EPHEMERIS_TYPE,CLASSIFICATION_TYPE,NORAD_CAT_ID,ELEMENT_SET_NO,REV_AT_EPOCH,BSTAR,MEAN_MOTION_DOT,MEAN_MOTION_DDOT
STARLINK-5040,2022-119AE,2025-12-06T11:26:29.881536,15.08834471,.00016764,53.2170,12.5186,88.6680,271.4504,0,U,53914,999,17775,-.64986959E-4,-.1322E-4,0
STARLINK-5017,2022-119AF,2025-12-06T08:36:56.265120,15.08837564,.000118,53.2180,13.2015,96.7683,263.3444,0,U,53915,999,17773,.56779277E-4,.616E-5,0
STARLINK-5051,2022-119AG,2025-12-06T10:36:04.628736,15.08849725,.00014276,53.2183,352.3823,82.5849,277.5305,0,U,53916,999,17804,.7220509E-4,.862E-5,0
STARLINK-5036,2022-119AH,2025-12-06T08:26:20.678208,15.08829719,.0001234,53.2185,13.1584,103.6060,256.5070,0,U,53917,999,17773,-.7799142E-5,-.412E-5,0
STARLINK-5012,2022-119AJ,2025-12-06T12:56:32.987616,15.08847030,.00011913,53.2185,12.1957,102.2178,257.8948,0,U,53918,999,17776,.17260997E-4,-.13E-6,0
STARLINK-5023,2022-119AK,2025-12-06T11:15:52.248672,15.08838118,.0001348,53.2189,12.4680,91.5215,268.5932,0,U,53919,999,17775,-.46778092E-4,-.1032E-4,0
STARLINK-5025,2022-119AL,2025-12-06T11:43:47.557632,15.08838343,.00015286,53.2191,12.5884,68.1491,291.9664,0,U,53920,999,17775,-.36199139E-4,-.864E-5,0
STARLINK-5002,2022-119AN,2025-12-06T03:03:01.960128,15.08833148,.0001413,53.2184,13.8855,86.9187,273.1967,0,U,53922,999,17770,-.20102866E-4,-.608E-5,0
STARLINK-5004,2022-119AP,2025-12-06T12:45:57.234816,15.08838788,.00012656,53.2186,12.1487,91.6824,268.4314,0,U,53923,999,17776,.8686889E-5,-.15E-5,0
STARLINK-5001,2022-119AQ,2025-12-06T08:08:24.552384,15.08845377,.0001176,53.2185,8.0919,99.9975,260.1150,0,U,53924,999,17780,.85768661E-4,.1078E-4,0
STARLINK-5011,2022-119AR,2025-12-06T12:14:06.376128,15.08845144,.00013496,53.2176,12.0194,96.0776,264.0370,0,U,53925,999,17776,.69716925E-4,.822E-5,0
STARLINK-5014,2022-119AS,2025-12-06T01:30:58.017600,15.08833281,.00013169,53.2181,9.2105,92.8825,267.2318,0,U,53926,999,17777,-.87185441E-4,-.1675E-4,0
STARLINK-5009,2022-119AU,2025-12-06T08:06:25.785216,15.08851334,.00015414,53.2165,3.0917,90.5886,269.5282,0,U,53928,999,17787,.14271181E-3,.1985E-4,0
STARLINK-5018,2022-119AV,2025-12-06T12:26:13.542720,15.08843278,.00014026,53.2190,12.7547,87.0404,273.0749,0,U,53929,999,17775,-.34546502E-4,-.838E-5,0
STARLINK-5010,2022-119AW,2025-12-06T07:45:13.902912,15.08824025,.00010435,53.2177,3.0036,105.9204,254.1904,0,U,53930,999,17787,.41703947E-4,.376E-5,0
STARLINK-4772,2022-119AY,2025-12-06T08:30:58.781664,15.08832605,.00012322,53.2192,358.2096,97.5015,262.6117,0,U,53932,999,17795,.12897003E-4,-.83E-6,0
STARLINK-4782,2022-119AZ,2025-12-06T08:01:06.589056,15.08847822,.00015378,53.2194,3.0712,87.2572,272.8596,0,U,53933,999,17787,.92510664E-4,.1185E-4,0
STARLINK-4775,2022-119BA,2025-12-06T08:25:39.576864,15.08843743,.00012596,53.2190,358.1816,101.3229,258.7905,0,U,53934,999,17796,.40594377E-4,.358E-5,0
STARLINK-5000,2022-119BB,2025-12-06T01:38:55.867488,15.08833534,.00013485,53.2181,349.2788,79.1737,280.9406,0,U,53935,999,17804,-.90041796E-4,-.172E-4,0
STARLINK-4791,2022-119BC,2025-12-06T07:43:13.708416,15.08834262,.00014043,53.2180,358.0047,83.0911,277.0241,0,U,53936,999,17795,-.3634736E-4,-.866E-5,0
YAOGAN-36 01A,2022-120A,2025-12-06T15:07:13.359936,15.20155052,.00049634,34.9932,54.1513,68.1072,292.0169,0,U,53943,999,17795,.67294375E-3,.14906E-3,0
YAOGAN-36 01C,2022-120E,2025-12-06T13:51:39.630528,15.31070975,.00044063,35.0065,30.7402,184.6319,175.4358,0,U,53947,999,17819,.79711644E-3,.24598E-3,0
SES-20,2022-123A,2025-12-06T08:07:44.956992,1.00268425,.00005817,0.0376,79.6791,4.3237,10.2094,0,U,53960,999,1160,0,-.93E-6,0
SES-21,2022-123B,2025-12-06T10:36:10.389888,1.00269710,.00008511,0.0289,38.9302,216.2679,208.3412,0,U,53961,999,528,0,.76E-6,0
STARLINK-4633,2022-125A,2025-12-06T13:56:12.449760,15.08852868,.00012798,53.2188,282.2596,97.1754,262.9384,0,U,53964,999,17526,.71477523E-4,.85E-5,0
STARLINK-4578,2022-125B,2025-12-06T13:52:16.950144,15.08849248,.00017117,53.2189,282.2422,75.6648,284.4534,0,U,53965,999,17526,-.3638509E-5,-.346E-5,0
STARLINK-4635,2022-125C,2025-12-06T13:45:36.544896,15.08849037,.00015012,53.2189,282.2145,89.6067,270.5098,0,U,53966,999,17526,.1827285E-3,.2622E-4,0
STARLINK-4634,2022-125D,2025-12-06T13:40:17.772096,15.08844506,.00016366,53.2183,282.1886,96.3882,263.7296,0,U,53967,999,17526,.12700386E-3,.1734E-4,0
STARLINK-4629,2022-125E,2025-12-06T13:24:22.955328,15.08842850,.00014475,53.2189,282.1234,93.0340,267.0818,0,U,53968,999,17526,-.51183145E-4,-.1103E-4,0
STARLINK-4468,2022-125F,2025-12-06T13:34:59.475360,15.08847447,.0001518,53.2175,282.1673,84.2000,275.9165,0,U,53969,999,17526,.13325874E-3,.1834E-4,0
